HST                     
1 20580U 90037B   26185.09309830  .00008649  00000+0  27319-3 0  9999
2 20580  28.4737 325.0166 0001696 352.4976   7.5595 15.30955000791162
POLAR                   
1 23802U 96013A   26184.98221311  .00000203  00000+0  00000+0 0  9995
2 23802  79.8755 226.8535 6487344 208.5029  90.9548  1.29846112145077
SWAS                    
1 25560U 98071A   26185.24297071  .00002799  00000+0  17967-3 0  9996
2 25560  69.8939 183.5320 0008274 242.6949 117.3373 15.09703087499842
CXO                     
1 25867U 99040B   26187.88935528  .00000762  00000+0  00000+0 0  9995
2 25867  56.4267 116.1509 7809224 310.0350   0.5660  0.37802688 17396
XMM-NEWTON              
1 25989U 99066A   26181.31376484  .00000075  00000+0  00000+0 0  9997
2 25989  64.4187 282.8185 4670815  64.6474   0.0796  0.50127122 23075
TERRA                   
1 25994U 99068A   26185.06281961  .00000468  00000+0  10416-3 0  9998
2 25994  97.9446 233.9393 0002839 145.3783 240.2911 14.61116974412078
CLUSTER II-FM7 (SAMBA)  
1 26410U 00041A   26185.98701490  .00007110  00000+0  00000+0 0  9995
2 26410 149.8772  53.9444 9075815 271.3535 359.4711  0.44827072 20391
CLUSTER II-FM8 (TANGO)  
1 26464U 00045B   26181.94601251  .00015784  00000+0  00000+0 0  9990
2 26464 150.1096  54.2616 9074787 271.4997   2.3331  0.44420098 20376
ODIN                    
1 26702U 01007A   26184.63601877  .00281546  00000+0  13023-2 0  9990
2 26702  97.3759 226.7074 0005617 136.0099 224.1618 15.82737975391993
TIMED                   
1 26998U 01055B   26184.46662906  .00001044  00000+0  98304-4 0  9991
2 26998  74.0661 202.2393 0001902 312.8663  47.2361 14.95324888333253
CORIOLIS                
1 27640U 03001A   26185.24970339  .00000119  00000+0  76505-4 0  9999
2 27640  98.7128 191.8740 0014386 159.2530 200.9233 14.19949540216647
SORCE                   
1 27651U 03004A   26185.27384723  .00003392  00000+0  25254-3 0  9993
2 27651  39.9891 164.1845 0017381 179.1457 180.9369 15.03795657274473
MOST                    
1 27843U 03031D   26184.75451051  .00000079  00000+0  56085-4 0  9993
2 27843  98.7045 192.2491 0009402 198.3350 161.7490 14.21325897193060
SCISAT 1                
1 27858U 03036A   26184.83783469  .00000773  00000+0  10324-3 0  9990
2 27858  73.9296 138.2602 0007939 208.0287 152.0464 14.81467693233914
SWIFT                   
1 28485U 04047A   26184.97034998  .00070231  00000+0  54591-3 0  9991
2 28485  20.5532  55.2849 0000844 198.0974 161.9442 15.70001988189502
HINODE (SOLAR-B)        
1 29479U 06041A   26185.28635490  .00000862  00000+0  15633-3 0  9997
2 29479  98.0545 201.1867 0016262 230.7441 129.2322 14.68647363 57389
SHIJIAN-6 02A (SJ-6 02A)
1 29505U 06046A   26185.30710252  .00006607  00000+0  33635-3 0  9990
2 29505  97.6349 226.5033 0004765  88.1697 272.0082 15.17142884 74860
SHIJIAN-6 02B (SJ-6 02B)
1 29506U 06046B   26185.34109259  .00001468  00000+0  11827-3 0  9993
2 29506  97.7147 214.2940 0014749  11.2798 348.8754 15.01419390 73310
FGRST (GLAST)           
1 33053U 08029A   26185.05612321  .00003766  00000+0  13734-3 0  9997
2 33053  25.5820  87.3425 0008238 162.7732 197.3087 15.24025959998414
SDO                     
1 36395U 10005A   26183.25044652 -.00000081  00000+0  00000+0 0  9998
2 36395  34.6806  86.1151 0001496  53.7669 128.3250  1.00270409 60216
CRYOSAT 2               
1 36508U 10013A   26185.24261819  .00000154  00000+0  37579-4 0  9996
2 36508  92.0361 281.4478 0002223  96.6914 263.4546 14.51895680860554
X-SAT                   
1 37389U 11015C   26185.28539794  .00000238  00000+0  11861-3 0  9999
2 37389  98.3520 161.4953 0012909 296.1121  63.8730 14.25211525790114
GCOM-W1 (SHIZUKU)       
1 38337U 12025A   26185.28764594  .00000569  00000+0  13626-3 0  9991
2 38337  98.2022 125.5846 0001500  66.8754  94.1278 14.57141006751522
NUSTAR                  
1 38358U 12031A   26185.33336806  .00011953  00000+0  68020-3 0  9995
2 38358   6.0256 265.5269 0007951 358.2780 242.4040 15.08967077  1308
NEOSSAT                 
1 39089U 13009D   26185.21300047  .00000191  00000+0  80567-4 0  9991
2 39089  98.4185   4.8413 0010746 189.5763 170.5220 14.35832620699187
BRITE-AUSTRIA           
1 39091U 13009F   26184.43698565  .00000188  00000+0  78355-4 0  9990
2 39091  98.4002   3.4710 0010018 184.9136 175.1954 14.36548610699389
IRIS                    
1 39197U 13033A   26184.99997444  .00001262  00000+0  15045-3 0  9993
2 39197  97.9322  24.2240 0022951 263.8031  96.0569 14.85919529702871
HISAKI (SPRINT-A)       
1 39253U 13049A   26185.21535509  .00000098  00000+0  43446-4 0  9992
2 39253  29.7181 133.4349 0136894 154.9067 205.8232 13.55545990633732
CASSIOPE                
1 39265U 13055A   26185.14491758  .00046684 -29525-6  50391-3 0  9999
2 39265  80.9132  46.1040 0286107   5.3145 355.1007 15.26737922670252
STSAT-3                 
1 39422U 13066G   26185.22487497  .00003327  00000+0  25254-3 0  9996
2 39422  97.6215 154.8399 0009322 350.6991   9.4060 15.02847837686767
